NORAD_CAT_ID,OBJECT_NAME,OBJECT_TYPE,EPOCH,MEAN_MOTION,ECCENTRICITY,INCLINATION,RA_OF_ASC_NODE,ARG_OF_PERICENTER,MEAN_ANOMALY,BSTAR,MEAN_MOTION_DOT,MEAN_MOTION_DDOT,TLE_LINE0,TLE_LINE1,TLE_LINE2,SEMIMAJOR_AXIS,PERIOD,APOGEE,PERIGEE,DECAYED
51788.0,STARLINK-3641,PAYLOAD,2023-11-01 13:52:36,15.08844398,0.0001841,53.218,245.8193,98.7217,261.3984,0.00012575,1.714e-05,0.0,0 STARLINK-3641,1 51788U 22017W   23305.57820198  .00001714  00000-0  12575-3 0  9990,2 51788  53.2180 245.8193 0001841  98.7217 261.3984 15.08844398 94220,6917.867,95.437,541.006,538.458,0.0
51788.0,STARLINK-3641,PAYLOAD,2023-11-02 02:35:41,15.0884741,0.0001299,53.2176,243.4436,97.5455,262.5685,0.00025409,3.759e-05,0.0,0 STARLINK-3641,1 51788U 22017W   23306.10811904  .00003759  00000-0  25409-3 0  9996,2 51788  53.2176 243.4436 0001299  97.5455 262.5685 15.08847410 94305,6917.858,95.437,540.621,538.824,0.0
51788.0,STARLINK-3641,PAYLOAD,2023-11-02 20:04:56,15.08842015,0.0001624,53.2167,240.1685,98.4243,261.6934,1.4512e-05,-5.7e-07,0.0,0 STARLINK-3641,1 51788U 22017W   23306.83676005 -.00000057  00000-0  14512-4 0  9990,2 51788  53.2167 240.1685 0001624  98.4243 261.6934 15.08842015 94417,6917.874,95.437,540.863,538.616,0.0
51788.0,STARLINK-3641,PAYLOAD,2023-11-03 05:37:14,15.08849697,0.0001488,53.2167,238.3887,84.4598,275.6564,5.5702e-05,5.99e-06,0.0,0 STARLINK-3641,1 51788U 22017W   23307.23419677  .00000599  00000-0  55702-4 0  9991,2 51788  53.2167 238.3887 0001488  84.4598 275.6564 15.08849697 94479,6917.851,95.437,540.745,538.686,0.0
51788.0,STARLINK-3641,PAYLOAD,2023-11-04 02:17:15,15.08844939,0.0001366,53.2165,234.5252,89.0333,271.0815,0.00013002,1.782e-05,0.0,0 STARLINK-3641,1 51788U 22017W   23308.09531885  .00001782  00000-0  13002-3 0  9993,2 51788  53.2165 234.5252 0001366  89.0333 271.0815 15.08844939 94602,6917.865,95.437,540.675,538.785,0.0
51788.0,STARLINK-3641,PAYLOAD,2023-11-04 11:49:34,15.08847732,0.0001342,53.2162,232.7408,90.0716,270.043,6.6182e-05,7.66e-06,0.0,0 STARLINK-3641,1 51788U 22017W   23308.49275561  .00000766  00000-0  66182-4 0  9992,2 51788  53.2162 232.7408 0001342  90.0716 270.0430 15.08847732 94665,6917.857,95.437,540.65,538.793,0.0
51788.0,STARLINK-3641,PAYLOAD,2023-11-04 22:57:16,15.08837178,0.0001561,53.2182,230.6633,97.1367,262.9803,5.9331e-05,6.56e-06,0.0,0 STARLINK-3641,1 51788U 22017W   23308.95644349  .00000656  00000-0  59331-4 0  9993,2 51788  53.2182 230.6633 0001561  97.1367 262.9803 15.08837178 94732,6917.889,95.438,540.834,538.674,0.0
51788.0,STARLINK-3641,PAYLOAD,2023-11-05 11:40:20,15.08850213,0.0001309,53.2157,228.2796,94.1809,265.9333,0.00012555,1.711e-05,0.0,0 STARLINK-3641,1 51788U 22017W   23309.48635273  .00001711  00000-0  12555-3 0  9997,2 51788  53.2157 228.2796 0001309  94.1809 265.9333 15.08850213 94810,6917.849,95.437,540.62,538.809,0.0
51788.0,STARLINK-3641,PAYLOAD,2023-11-05 22:48:02,15.08852771,0.0001395,53.2162,226.1998,103.0647,257.0501,0.00011053,1.472e-05,0.0,0 STARLINK-3641,1 51788U 22017W   23309.95003212  .00001472  00000-0  11053-3 0  9997,2 51788  53.2162 226.1998 0001395 103.0647 257.0501 15.08852771 94889,6917.841,95.437,540.671,538.741,0.0
51788.0,STARLINK-3641,PAYLOAD,2023-11-06 05:09:35,15.08851531,0.0001341,53.2159,225.0033,89.606,270.5086,9.2261e-05,1.181e-05,0.0,0 STARLINK-3641,1 51788U 22017W   23310.21498979  .00001181  00000-0  92261-4 0  9994,2 51788  53.2159 225.0033 0001341  89.6060 270.5086 15.08851531 94928,6917.845,95.437,540.638,538.782,0.0
51788.0,STARLINK-3641,PAYLOAD,2023-11-06 22:38:52,15.08802743,0.0001177,53.2179,221.7366,89.9985,270.1142,-0.0003571,-5.961e-05,0.0,0 STARLINK-3641,1 51788U 22017W   23310.94366562 -.00005961  00000-0 -35710-3 0  9993,2 51788  53.2179 221.7366 0001177  89.9985 270.1142 15.08802743 95031,6917.994,95.44,540.674,539.045,0.0
51788.0,STARLINK-3641,PAYLOAD,2023-11-07 03:25:01,15.08819481,0.0001535,53.2167,220.8399,113.4647,246.6507,-0.0001963,-3.409e-05,0.0,0 STARLINK-3641,1 51788U 22017W   23311.14237946 -.00003409  00000-0 -19630-3 0  9997,2 51788  53.2167 220.8399 0001535 113.4647 246.6507 15.08819481 95063,6917.943,95.439,540.87,538.746,0.0
51788.0,STARLINK-3641,PAYLOAD,2023-11-07 11:21:56,15.08833493,0.0001248,53.2165,219.3612,109.9076,250.2051,2.9562e-05,1.83e-06,0.0,0 STARLINK-3641,1 51788U 22017W   23311.47357495  .00000183  00000-0  29562-4 0  9995,2 51788  53.2165 219.3612 0001248 109.9076 250.2051 15.08833493 95119,6917.9,95.438,540.629,538.902,0.0
51788.0,STARLINK-3641,PAYLOAD,2023-11-08 03:15:47,15.08861798,0.0001542,53.2166,216.3834,112.9656,247.1499,0.00051884,7.984e-05,0.0,0 STARLINK-3641,1 51788U 22017W   23312.13596120  .00007984  00000-0  51884-3 0  9996,2 51788  53.2166 216.3834 0001542 112.9656 247.1499 15.08861798 95219,6917.814,95.436,540.745,538.612,0.0
51788.0,STARLINK-3641,PAYLOAD,2023-11-08 14:23:30,15.08838969,0.0002334,53.2177,214.2982,98.3785,261.7471,0.00027818,4.142e-05,0.0,0 STARLINK-3641,1 51788U 22017W   23312.59965577  .00004142  00000-0  27818-3 0  9995,2 51788  53.2177 214.2982 0002334  98.3785 261.7471 15.08838969 95285,6917.884,95.438,541.363,538.134,0.0
51788.0,STARLINK-3641,PAYLOAD,2023-11-08 22:20:25,15.08836766,0.0001458,53.218,212.8132,114.0595,246.055,0.00024503,3.614e-05,0.0,0 STARLINK-3641,1 51788U 22017W   23312.93085304  .00003614  00000-0  24503-3 0  9995,2 51788  53.2180 212.8132 0001458 114.0595 246.0550 15.08836766 95334,6917.89,95.438,540.764,538.747,0.0
51788.0,STARLINK-3641,PAYLOAD,2023-11-08 23:55:48,15.08837945,0.0001394,53.217,212.5178,110.1169,249.9974,0.00027041,4.018e-05,0.0,0 STARLINK-3641,1 51788U 22017W   23312.99709202  .00004018  00000-0  27041-3 0  9990,2 51788  53.2170 212.5178 0001394 110.1169 249.9974 15.08837945 95346,6917.887,95.438,540.716,538.787,0.0
51788.0,STARLINK-3641,PAYLOAD,2023-11-09 22:11:12,15.08845111,0.0001309,53.2163,208.3532,123.7134,236.3983,-1.9264e-05,-5.95e-06,0.0,0 STARLINK-3641,1 51788U 22017W   23313.92445176 -.00000595  00000-0 -19264-4 0  9998,2 51788  53.2163 208.3532 0001309 123.7134 236.3983 15.08845111 95482,6917.865,95.437,540.635,538.824,0.0
51788.0,STARLINK-3641,PAYLOAD,2023-11-09 23:46:35,15.0885475,0.0001326,53.2165,208.0584,104.0191,256.0949,-0.00011331,-2.092e-05,0.0,0 STARLINK-3641,1 51788U 22017W   23313.99068915 -.00002092  00000-0 -11331-3 0  9997,2 51788  53.2165 208.0584 0001326 104.0191 256.0949 15.08854750 95493,6917.835,95.437,540.618,538.783,0.0
51788.0,STARLINK-3641,PAYLOAD,2023-11-10 22:01:58,15.08851315,0.0001315,53.2169,203.8951,95.6209,264.4933,0.00014341,1.996e-05,0.0,0 STARLINK-3641,1 51788U 22017W   23314.91804023  .00001996  00000-0  14341-3 0  9992,2 51788  53.2169 203.8951 0001315  95.6209 264.4933 15.08851315 95637,6917.846,95.437,540.621,538.801,0.0
51788.0,STARLINK-3641,PAYLOAD,2023-11-11 02:48:07,15.08851807,0.0001418,53.2162,203.0016,107.6024,252.5123,0.0002492,3.682e-05,0.0,0 STARLINK-3641,1 51788U 22017W   23315.11675742  .00003682  00000-0  24920-3 0  9997,2 51788  53.2162 203.0016 0001418 107.6024 252.5123 15.08851807 95665,6917.844,95.437,540.69,538.728,0.0
51788.0,STARLINK-3641,PAYLOAD,2023-11-11 09:09:40,15.0884719,0.0001386,53.2155,201.8098,95.0711,265.0439,0.00013331,1.835e-05,0.0,0 STARLINK-3641,1 51788U 22017W   23315.38172227  .00001835  00000-0  13331-3 0  9998,2 51788  53.2155 201.8098 0001386  95.0711 265.0439 15.08847190 95704,6917.858,95.437,540.682,538.765,0.0
51788.0,STARLINK-3641,PAYLOAD,2023-11-11 20:17:23,15.08829889,0.0001587,53.2166,199.7363,101.1363,258.9807,-0.00016871,-2.971e-05,0.0,0 STARLINK-3641,1 51788U 22017W   23315.84541368 -.00002971  00000-0 -16871-3 0  9991,2 51788  53.2166 199.7363 0001587 101.1363 258.9807 15.08829889 95773,6917.911,95.438,540.874,538.678,0.0
51788.0,STARLINK-3641,PAYLOAD,2023-11-11 21:52:47,15.08827501,0.0001543,53.217,199.4389,101.6317,258.4848,-4.7158e-05,-1.038e-05,0.0,0 STARLINK-3641,1 51788U 22017W   23315.91166191 -.00001038  00000-0 -47158-4 0  9992,2 51788  53.2170 199.4389 0001543 101.6317 258.4848 15.08827501 95789,6917.919,95.438,540.851,538.716,0.0
51788.0,STARLINK-3641,PAYLOAD,2023-11-11 23:28:10,15.0882739,0.0001516,53.2173,199.1414,98.7439,261.3725,-5.6905e-05,-1.193e-05,0.0,0 STARLINK-3641,1 51788U 22017W   23315.97790261 -.00001193  00000-0 -56905-4 0  9991,2 51788  53.2173 199.1414 0001516  98.7439 261.3725 15.08827390 95793,6917.919,95.438,540.833,538.735,0.0
51788.0,STARLINK-3641,PAYLOAD,2023-11-12 09:00:29,15.0883469,0.0001509,53.2174,197.3559,96.5376,263.5788,-9.9137e-06,-4.46e-06,0.0,0 STARLINK-3641,1 51788U 22017W   23316.37533885 -.00000446  00000-0 -99137-5 0  9998,2 51788  53.2174 197.3559 0001509  96.5376 263.5788 15.08834690 95853,6917.897,95.438,540.806,538.718,0.0
51788.0,STARLINK-3641,PAYLOAD,2023-11-12 16:57:24,15.08849613,0.0001539,53.2174,195.8694,100.8748,259.2417,2.945e-05,1.81e-06,0.0,0 STARLINK-3641,1 51788U 22017W   23316.70652906  .00000181  00000-0  29450-4 0  9995,2 51788  53.2174 195.8694 0001539 100.8748 259.2417 15.08849613 95909,6917.851,95.437,540.781,538.651,0.0
51788.0,STARLINK-3641,PAYLOAD,2023-11-12 21:43:33,15.08850834,0.0001572,53.2173,194.9776,103.9265,256.1902,6.6771e-05,7.75e-06,0.0,0 STARLINK-3641,1 51788U 22017W   23316.90524649  .00000775  00000-0  66771-4 0  9995,2 51788  53.2173 194.9776 0001572 103.9265 256.1902 15.08850834 95939,6917.847,95.437,540.8,538.625,0.0
51788.0,STARLINK-3641,PAYLOAD,2023-11-13 08:51:15,15.08846521,0.000144,53.2155,192.8933,89.3374,270.7783,0.00010921,1.451e-05,0.0,0 STARLINK-3641,1 51788U 22017W   23317.36892829  .00001451  00000-0  10921-3 0  9991,2 51788  53.2155 192.8933 0001440  89.3374 270.7783 15.08846521 96009,6917.86,95.437,540.722,538.729,0.0
51788.0,STARLINK-3641,PAYLOAD,2023-11-14 00:45:07,15.08836755,0.0001436,53.2154,189.9192,82.1437,277.9718,0.00012257,1.663e-05,0.0,0 STARLINK-3641,1 51788U 22017W   23318.03133526  .00001663  00000-0  12257-3 0  9997,2 51788  53.2154 189.9192 0001436  82.1437 277.9718 15.08836755 96104,6917.89,95.438,540.749,538.762,0.0
